{
  "address": [
    {
      "street": "76 Rivington Street",
      "city": "London",
      "postcode": "EC2A 3AY",
      "country": "UK",
      "opening": "Monday to Friday 8.30am-6pm",
    "coords":{
      "latitude": 51.526279,
      "longitude": -0.078040
    }
  },
    {
    "street": "17 Great Eastern Street",
    "postcode": "EC2A 3NT",
    "city": "London",
    "country": "United Kingdom",
    "opening": "Access: PAD-Anytime 24x7",
  "coords":{
    "latitude": 51.522839,
    "longitude": -0.077740

    }
  },


  {
  "street": "5 Appold Street",
  "city": "London",
  "postcode": "EC2A 2DA",
  "country": "UK",
  "opening": "Access: PAD-Anytime 24x7",
 "coords": {
  "latitude": 51.521360,
  "longitude": -0.080970
 }
},
  {
    "street": "Hackney Britannia Project - Morgan Sindall",
    "city": "London",
    "postcode": "N1 5LA",
    "country": "UK",
    "opening": "Access: PAD-Anytime 24x7",
    "coords": {
      "latitude": 51.531020,
      "longitude": -0.082900
     }
  },
  {
    "street": "46 Eagle Wharf Road",
    "city": "London",
    "postcode": "N1 7ED",
    "country": "UK",
    "opening": "Limited Access Monday to Friday 8am-6pm",
  "coords": {
      "latitude": 51.534940,
      "longitude": -0.090750
     }
  },
  {
    "street": "1 Finsbury Avenue SRM",
    "city": "London",
    "postcode": "EC2M 2PA",
    "country": "UK",
    "opening": "Access: PAD-Anytime 24x7",
  "coords": {
      "latitude": 51.519410,
      "longitude": -0.085190
     }
  },
  {
    "street": "135 Bishopsgate",
    "city": "London",
    "postcode": "EC2M 3YD",
    "country": "UK",
    "opening": "Access: PAD-Anytime 24x7",
    "coords": {
      "latitude": 51.517050,
      "longitude": -0.080870
     }
  },
  {
    "street": "100 Liverpool Street, Broadgate Circle",
    "city": "London",
    "postcode": "EC2M 2RH",
    "country": "UK",
    "opening": "Access: PAD-Anytime 24x7",
    "coords": {
      "latitude": 51.519100,
      "longitude": -0.083480
     }
  },
  {
    "street": "Eden Hous 23-25 Wilson Street",
    "city": "London",
    "postcode": "EC2M 2TE",
    "country": "UK",
    "opening": "Access: PAD-Anytime 24x7",
    "coords": {
      "latitude": 51.519550,
      "longitude": -0.085950
     }
  },
  {
    "street": "Park House 16-18 Finsbury Circus",
    "city": "London",
    "postcode": "EC2M 7EB",
    "country": "UK",
    "opening": "Limited Access 8am - 6pm Monday to Friday",
    "coords": {
      "latitude": 51.518140,
      "longitude": -0.085440
     }
  },
  {
    "street": "16th Floor Dashwood House Old Broad Street",
    "city": "London",
    "postcode": "EC2M 1QS",
    "country": "UK",
    "opening": "Limited Access 9am - 5pm Monday to Friday",
    "coords": {
      "latitude": 51.515710,
      "longitude": -0.084120
     }
  },
  {
    "street": "Imagile Group, 3rd Floor, 10 New Street",
    "city": "London",
    "postcode": "EC2M 4TP",
    "country": "UK",
    "opening": "Limited Access 09:00-17:00",
    "coords": {
      "latitude": 51.517170,
      "longitude": -0.079200
     }
  },
  {
    "street": "Richer Sounds, Shop Floor, 44 Artillery Lane",
    "city": "London",
    "postcode": "E1 7LS",
    "country": "UK",
    "opening": "Limited Access 12pm - 6pm 7 days a week",
    "coords": {
      "latitude": 51.518480,
      "longitude": -0.077510
     }
  },
  {
    "street": "Coventry University London, Ground floor, University House, Middlesex Street",
    "city": "London",
    "postcode": "E1 7JF",
    "country": "UK",
    "opening": "imited Access 7am - 10pm (Mon-Fri) / 1pm-7pm Sat access / No Sun access",
    "coords": {
      "latitude": 51.517540,
      "longitude": -0.077540

     }
  },
  {
    "street": "Adstream UK Ltd, 20-22 Commercial Stret",
    "city": "London",
    "postcode": "E1 6LP",
    "country": "UK",
    "opening": "Limited Access Monday to Friday 8.30am-6pm: Ground Floor Kitchen",
    "coords": {
      "latitude": 51.518890,
      "longitude": -0.074480
     }
  },
  {
    "street": "Higgins Homes, Hemming Street",
    "city": "London",
    "postcode": "E1 5BW",
    "country": "UK",
    "opening": "Limited Access Monday to Friday 7.30am-5pm",
    "coords": {
      "latitude": 51.520721,
      "longitude": -0.063950
     }
  },
  {
    "street": "Mile End Hospital, Accelerate Clinic, Bancroft Road",
    "city": "London",
    "postcode": "E1 4DG",
    "country": "UK",
    "opening": "Limited Access Monday to Friday 9am-5pm",
    "coords": {
      "latitude": 51.525390,
      "longitude": -0.044470

     }
  },
  {
    "street": "St George City, Project Office, 9 Pennington Street",
    "city": "London",
    "postcode": "E1W 2BD",
    "country": "UK",
    "opening": "Limited Access Monday to Saturday,closed Sundays",
    "coords": {
      "latitude": 51.508770,
      "longitude": -0.061740
     }
  },
  {
    "street": "CFIELD CONSTRUCTION, ROSSENDALE STREET, CAZENOVE",
    "city": "London",
    "postcode": "E5 8TA",
    "country": "UK",
    "opening": "Limited Access Mon to Fri 8AM -6PM",
    "coords": {
      "latitude": 51.563140,
      "longitude": -0.060000
     }
  },
  {
    "street": "Royal Mint Gardens, Midgard Ltd, Construction Site Royal Mint Street",
    "city": "London",
    "postcode": "E1 8LG",
    "country": "UK",
    "opening": "Access: PAD-Anytime 24x7",
    "coords": {
      "latitude": 51.510370,
      "longitude": -0.071150
     }
  },
  {
    "street": "124-128 City Road",
    "city":"London",
    "postcode": "EC1V 2NJ",
    "country": "UK",
    "opening": "Limited Access, Monday to Friday 8.30am-5pm"
  },
  
{
  "street": "167 - 173 Goswell Road Islington London",
  "city":"London",
  "postcode": "EC1V 7HD",
  "country": "UK",
  "opening": "7 - 6:30 Mon-Friday"
},
{
  "street": "Flat 158 Turnpike House Goswell Road",
  "city":"London",
  "postcode": "EC1V 7PB",
  "country": "UK",
  "opening": "Monday to Friday 7.30am-5.30pm"
},
{
  "street": "3 Corners Centre, 40 Northampton Road",
  "city":"London",
  "postcode": "EC1R 0HU",
  "country": "UK",
  "opening": "9am to 8pm -mon-Fri / 9-30am to 3pm Sat & Sun"
},

{
  "street": "1 Gresham Street",
  "city":"London",
  "postcode": "EC2V 7BX",
  "country": "UK",
  "opening": "08.30-16.30"
},
{
  "street": "25 Farringdon Street",
  "city":"London",
  "postcode": "EC4A 4AB",
  "country": "UK",
  "opening": "8am-6.30pm"
},
{
  "street": "100 Fetter Lane",
  "city":"London",
  "postcode": "EC4A 1BN",
  "country": "UK",
  "opening": "9.00 am to 5.00 pm Monday to Friday"
},
{
  "street": "Mount Anvil - Royal Docks West, Seasgull Lane",
  "city":"London",
  "postcode": "E16 1AZ",
  "country": "UK",
  "opening": "Monday to Friday"
},
{
  "street": "60 Bishopsgate, Hasilwood House",
  "city":"London",
  "postcode": "EC2N 4AW",
  "country": "UK",
  "opening": "Monday to Friday 9am-5pm"
},
{
  "street": "Perrys City, Threadneedle Street",
  "city":"London",
  "postcode": "EC2R 8AY",
  "country": "UK",
  "opening": "Monday to Friday 9am-5pm"
},
{
  "street": "67 Lombard Street, Level -5",
  "city":"London",
  "postcode": "EC3V 9LJ",
  "country": "UK",
  "opening": "Monday to Friday 9am-5pm"
},
{
  "street": "40 Lime Street, Everest Reinsurance Group",
  "city":"London",
  "postcode": "EC3M 5BS",
  "country": "UK",
  "opening": "Monday to Friday 9am-5pm"
},
{
  "street": "10 Fenchurch Avenue",
  "city":"London",
  "postcode": "EC3M 5BN",
  "country": "UK",
  "opening": "Monday to Friday 9am-5pm"
},
{
  "street": "71 Fenchurch Street",
  "city":"London",
  "postcode": "EC3M 1BS",
  "country": "UK",
  "opening": "7am-7pm"
},
{
  "street": "1 Minster Court, Mincing Lane",
  "city":"London",
  "postcode": "EC3R 7AA",
  "country": "UK",
  "opening": "9.00 am to 5.00 pm Monday to Friday"
},
{
  "street": "35 Seething Lane",
  "city":"London",
  "postcode": "EC3N 4AH",
  "country": "UK",
  "opening": "Monday to Friday 7am-6.30pm"
},
{
  "street": "10 Trinity Square, Ardmore Construction Limited, Muscovy Street",
  "city":"London",
  "postcode": "EC3N",
  "country": "UK",
  "opening": "PAD-Anytime 24x7"
},
{
  "street": "Admiral House, 76-78 Old street",
  "city":"London",
  "postcode": "EC1V 9AZ",
  "country": "UK",
  "opening": "Monday to Friday 8.30am-9pm"
},

{
  "street": "53-64 chanceryLane",
  "city":"London",
  "postcode": "WC2A 1QS",
  "opening": "Monday to Thursday 9am-5.30pm Friday 9am-4.30pm"
},
{
  "street": "29 Bloomsbury Way",
  "city":"London",
  "postcode": "WC1A 2SL",
  "opening": "12pm - 6pm 7 days a week"
},
{
  "street": "168-173 High Holborn",
  "city":"London",
  "postcode": "WC1V 7AA",
  "opening": "Monday to Friday 8.30am-6pm"
},
{
  "street": "14 Greek Street",
  "city":"London",
  "postcode": "W1D 4AT",
  "opening": "7 am - 7 pm Monday-Friday, 7 am - 2 pm Saturday"
},
{
  "street": "2 Leicester Court",
  "city":"London",
  "postcode": "WC2H 7DW",
  "opening": "Monday to Thursday 10am-5.30pm; Saturday and Sunday 10am-5.30pm (Not open on Fridays)"
},
{
  "street": "54 Whitcomb Street",
  "city":"London",
  "postcode": "WC2H 7DN",
  "opening": "Monday to Friday 8am-6pm"
},
{
  "street": "20 Hanover Square",
  "city":"London",
  "postcode": "W1S 1JY",
  "opening": "Monday to Friday 8am-6pm; Saturday 8am-1pm"
},
{
  "street": "124-128 City Road",
  "city":"London",
  "postcode": "EC1V 2NJ",
  "country": "UK",
  "opening": "Limited Access, Monday to Friday 8.30am-5pm"
},
{
  "street": "St Lukes Community Centre, Central Street",
  "city":"London",
  "postcode": "EC1V 8AJ",
  "country": "UK",
  "opening": "Limited Access, Mon - Sun 8am - 9pm (excluding bank holidays)"
},
{
"street": "City Tower, Basinghall Street",
"city":"London",
"postcode": "EC2V 5DE",
"country": "UK",
"opening": "PAD-Anytime 24x7"
},
{
"street": "1 Gresham Street",
"city":"London",
"postcode": "EC2V 7BX",
"country": "UK",
"opening": "08.30-16.30"
},
{
"street": "25 Farringdon Street",
"city":"London",
"postcode": "EC4A 4AB",
"country": "UK",
"opening": "8am-6.30pm"
},
{
"street": "100 Fetter Lane",
"city":"London",
"postcode": "EC4A 1BN",
"country": "UK",
"opening": "9.00 am to 5.00 pm Monday to Friday"
},
{
"street": "Mount Anvil - Royal Docks West, Seasgull Lane",
"city":"London",
"postcode": "E16 1AZ",
"country": "UK",
"opening": "Monday to Friday"
},
{
"street": "60 Bishopsgate, Hasilwood House",
"city":"London",
"postcode": "EC2N 4AW",
"country": "UK",
"opening": "Monday to Friday 9am-5pm"
},
{
"street": "Perrys City, Threadneedle Street",
"city":"London",
"postcode": "EC2R 8AY",
"country": "UK",
"opening": "Monday to Friday 9am-5pm"
},
{
"street": "67 Lombard Street, Level -5",
"city":"London",
"postcode": "EC3V 9LJ",
"country": "UK",
"opening": "Monday to Friday 9am-5pm"
},
{
"street": "40 Lime Street, Everest Reinsurance Group",
"city":"London",
"postcode": "EC3M 5BS",
"country": "UK",
"opening": "Monday to Friday 9am-5pm"
},
{
"street": "10 Fenchurch Avenue",
"city":"London",
"postcode": "EC3M 5BN",
"country": "UK",
"opening": "Monday to Friday 9am-5pm"
},
{
"street": "71 Fenchurch Street",
"city":"London",
"postcode": "EC3M 1BS",
"country": "UK",
"opening": "7am-7pm"
},
{
"street": "1 Minster Court, Mincing Lane",
"city":"London",
"postcode": "EC3R 7AA",
"country": "UK",
"opening": "9.00 am to 5.00 pm Monday to Friday"
},
{
"street": "35 Seething Lane",
"city":"London",
"postcode": "EC3N 4AH",
"country": "UK",
"opening": "Monday to Friday 7am-6.30pm"
},
{
"street": "10 Trinity Square, Ardmore Construction Limited, Muscovy Street",
"city":"London",
"postcode": "EC3N",
"country": "UK",
"opening": "PAD-Anytime 24x7"
},

{
"street": "99 Golden Lane ",
"city":"London",
"postcode": "EC1Y 0TZ",
"country": "UK",
"opening": "Monday to Friday 0800 - 1800"
},
{
    "street": "200 Grays Inn Road",
    "city":"London",
    "postcode": "WC1X 8XZ",
    "opening": "Mon - Friday : 07:00 - 19:00"
  },
  {
    "street": "Harcourt House, Cavendish Square",
    "city":"London",
    "postcode": "W1G 0PN",
    "opening": "Monday to Friday"
  },
  {
    "street": "75 & 77 Brook Street",
    "city":"London",
    "postcode": "W1K 4AD",
    "opening": "Monday to Friday"
  },
  {
    "street": "40 - 50 Tottenham Street",
    "city":"London",
    "postcode": "W1T 4RN",
    "opening": "Mon-Fri 8am - 6pm"
  },
  {
    "street": "33 Riding House Street",
    "city":"London",
    "postcode": "W1W 7DZ",
    "opening": "Monday to Friday 9am-6.30pm"
  },
  {
    "street": "Engine Group, Great Portland Street",
    "city":"London",
    "postcode": "W1W 7RT",
    "opening": "PAD-Anytime 24x7"
  },
  {
    "street": "Walmar House, Reception, 296 Regent Street",
    "city":"London",
    "postcode": "W1B 3AP",
    "opening": "PAD-Anytime 24x7"
  },
  {
    "street": "BAE Systems, 6 Carlton Gardens",
    "city":"London",
    "postcode": "SW1Y 5AD",
    "opening": "Mon-Fri 0830-1700"
  },
  {
    "street": "12 Carlton House Terrace, Mezzanine Office",
    "city":"London",
    "postcode": "SW1Y 5AH",
    "opening": "Monday to Sunday 9am-11pm"
  },
  {
    "street": "15 Stanhope Gate",
    "city":"London",
    "postcode": "W1K 1LN",
    "opening": "Monday to Friday 8am-8pm"
  },
  {
    "street": "100 North Wharf Road, Paddington",
    "city":"London",
    "postcode": "W2 1LA",
    "opening": "Mon-Fri 8-6 Sat 8-12"
  },
  {
    "street": "7 Fosbury Mews",
    "city":"London",
    "postcode": "W2 3JE",
    "opening": "Mon-Fri 8am - 6pm"
  },
  {
    "street": "54 Wood Lane, White City Development",
    "city":"London",
    "postcode": "W12 7RQ",
    "opening": "Monday to Friday 7am-6pm"

  },
  {
    "street": "26 Hill Road, St. Johns Wood",
    "city":"London",
    "postcode": "NW8 9QG",
    "opening": "PAD-Anytime 24x7"
  },
  {
    "street": "Westminster Synagogue, Rutland Gardens",
    "city":"London",
    "postcode": "SW7 1BX",
    "opening": "Monday to Friday 7am-10pm; Saturday 8am-2pm"
  },
  {
    "street": "36 Ennismore Gardens",
    "city":"London",
    "postcode": "SW7 1AF",
    "opening": "8am to 5.30pm"
  },
  {
    "street": "Baden-Powell House, 65-67 Queens Gate",
    "city":"London",
    "postcode": "SW7 5JS",
    "opening": "PAD-Anytime 24x7"
  },
  {
    "street": "258 Fulham Road",
    "city":"London",
    "postcode": "SW10 9EL",
    "opening": "11am-4pm"
  },
  {
    "street": "43 Howland Street",
    "city":"London",
    "postcode": "W1T 4AY",
    "opening": "Mon-Fri 8am - 6pm"
  },
  {
    "street": "388 High Road, Wembley",
    "city":"London",
    "postcode": "HA9 6AR",
    "opening": "Mon - Fri 09:00 - 18:00 hrs"
  },
  {
    "street": "21, Wembley Park Drive, Wembley",
    "city":"London",
    "postcode": "NW2 5SS",
    "opening": "Mon - Fri 09:00 - 18:00 hrs"
  },
  {
    "street": "Edgware Road, Cricklewood",
    "city":"London",
    "postcode": "NW2 6GJ",
    "opening": "Monday to Friday 7.30am-5.30pm; Saturday 8am-12.30pm"
  },
  {
    "street": "ENGIE Site Office, Oxford Road, Kilburn",
    "city":"London",
    "postcode": "NW6 5SL"
  },
  {
    "street": "Television Centre, In Site Security Office, Wood Lane, Shepherds Bush",
    "city":"London",
    "postcode": "W12 7FJ",
    "opening": "Monday - Friday, 07:00 - 18:00"
  },
  {
    "street": "45 PEMBRIDGE VILLAS",
    "city":"London",
    "postcode": "W11 3EP",
    "opening": "MON-FRI 7AM-8PM (excluding bank holidays)"
  },
  {
    "street": "Hill Partnerships, Site Office, Rectory Park Avenue",
    "city":"London",
    "postcode": "UB5 6SG",
    "opening": "Mon-Fri: 8am-5pm"
  },
  {
    "street": "Squires Garden Centre, Common Road, Stanmore",
    "city":"London",
    "postcode": "HA7 3JF",
    "opening": "Monday to Saturday 8am-6pm; Sunday10.30am-4.30pm. Closed Easter Sunday and Christmas Day"
  },
  {
    "street": "A Pinchen (McLaren Site Office), Genotin Road",
    "city":"London",
    "postcode": "EN1 2AWG",
    "opening": "Limited Access: 7am - 6pm"
  },
  {
    "street": "Clipper Logistics plc, Suez Road",
    "city":"London",
    "postcode": "EN3 7SN",
    "opening": "PAD-Anytime 24x7"
  },
  {
    "street": "Waltham Holy Cross Primary School, Quendon Drive",
    "city":"London",
    "postcode": "EN9 1LG",
    "opening": "Term Time Only"
  },
  {
    "street": "Roof-Link, Eastbrook Road, Waltham Abbey",
    "city":"London",
    "postcode": "EN9 3AJ",
    "opening": "Monday to Friday 9am-5pm"
  },
  {
    "street": "206 Upshire Road, Waltham Abbey",
    "city":"London",
    "postcode": "EN9 3PX",
    "opening": "PAD-Anytime 24x7"
  },
  {
    "street": "99 Wallis Road, Hackney Wick",
    "city":"London",
    "postcode": "E9 5LN",
    "opening": "Monday - Friday 7am - 6pm"
  },
  {
    "street": "41 Clarnico Lane, Balfour Beatty site office",
    "city":"London",
    "postcode": "E20 3AF",
    "opening": "Monday - Friday 0700 - 1900"
  },
  {
    "street": "Millfields Waste Depot, Millfields Road",
    "city":"London",
    "postcode": "E5 0AR",
    "opening": "PAD-Anytime 24x7"
  },
  {
    "street": "J B Riney, Waltham Forest, Low Hall Road Council Depot",
    "city":"London",
    "postcode": "E10 7AS",
    "opening": "Mon-Fri 0700-1600"
  },
  {
    "street": "Damira Docklands, Decontamination Room, Bow Common Lane",
    "city":"London",
    "postcode": "E3 4JJ",
    "opening": "Monday to Thursday 9am-5pm; Friday 8am-1pm"
  },
  {
    "street": "25 Cabot Square, Tom Osmond, Level 9 Site Office",
    "city":"London",
    "postcode": "E14 4QA",
    "opening": "8am-6pm Monday - Friday"
  },
  {
    "street": "Chalegrove Properties Ltd, Landmark Pinnacle Site Office, Westferry Road",
    "city":"London",
    "postcode": "E14 8JH",
    "opening": "8am-6pm weekdays"
  },
  {
    "street": "Wates Site Cabinets, University Way",
    "city":"London",
    "postcode": "E16 2RD",
    "opening": "Monday to Friday 8am-5.30pm"
  },
  {
    "street": "Knaphill Working Men's Club, 2 Highclere Road",
    "city":"Woking",
    "postcode": "GU21 2PN",
    "opening": "Monday to Sunday 11am-midnight"
  },
  {
    "street": "Miltenyi Biotec Ltd, Almac House, Church Lane",
    "city":"Woking",
    "postcode": "GU24 9DR",
    "opening": "Monday to Friday 9am-5pm"
  },
  {
    "street": "ABB Ltd, Boundary Road",
    "city":"Woking",
    "postcode": "GU21 5BS",
    "opening": "Mon-Fri 07:00 to 19:30"
  },
  {
    "street": "Ecobat Battery Technologies, Inside Warehouse, Unit 2 Riverside Business Centre",
    "city":"Woking",
    "postcode": "GU1 1DR",
    "opening": "08:00 - 17:00"
  },
  {
    "street": "UL International (UK) Ltd, Wornesh House, Old Portsmouth Road",
    "city":"Woking",
    "postcode": "GU3 1LR",
    "opening": "Monday to Friday 7.30am to 6.30pm"
  },
  {
    "street": "Richard Onslow Pub, High Street, Cranleigh",
    "city":"Surrey",
    "postcode": "GU6 8AF",
    "opening": "Pub opening hours"
  },
  {
    "street": "Environment Agency, Goldcrest House",
    "city":"Wrecclesham",
    "postcode": "GU6 8AF",
    "opening": "Monday to Friday 9am-5pm"
  },
  {
    "street": "Binsted Pavillion, The Street",
    "city":"Binsted",
    "postcode": "GU34 4PB",
    "opening": "PAD-Anytime 24x7"
  },
  {
    "street": "Alton Community Centre, Amery Street",
    "city":"Alton",
    "postcode": "GU34 1HN",
    "opening": "PAD-Anytime 24x7"
  },
  {
    "street": "Winton Farm, Petersfield Road",
    "city":"Alton",
    "postcode": "SO24 0HB",
    "opening": "7.30am to 17.30pm week days"
  },
  {
    "street": "75 Hyde Street, Winchester",
    "city":"Alton",
    "postcode": "SO23 7DW",
    "opening": "0830-1800 Mon-Fr"
  },
  {
    "street": "Weeke Primary School, Stoney Lane",
    "city":"Winchester",
    "postcode": "SO22 6DR",
    "opening": "Monday to Friday 7am-6pm Term Time Only"
  },
  {
    "street": "Winton House, St Peter Street, Winchester",
    "city":"Winchester",
    "postcode": "SO23 8BW",
    "opening": "9.00 am to 5.00 pm Monday to Friday"
  },
  {
    "street": "West Meon Surgery, Doctors Lane, West Meon",
    "city":"Hampshire",
    "postcode": "GU32 1LR",
    "opening": "Mon, Wed and Fri 8am-6.30pm; Tuesday and Thursday 8am-4pm"
  },
  {
    "street": "Church Road, Idmiston",
    "city":"Wiltshire",
    "postcode": "SP4 0AT",
    "opening": "PAD-Anytime 24x7"
  },
  {
    "street": "1 Clarendon Terrace, Stockbridge",
    "city":"Stockbridge",
    "postcode": "SO20 6EY",
    "opening": "Monday to Thursday 8.30am-5.30pm; Friday 8.30am-1pm"
  },
  {
    "street": "Castle Combe Village Hall, Castle Combe",
    "city":"Stockbridge",
    "postcode": "SN14 7HU",
    "opening": "PAD-Anytime 24x7"
  },
  {
    "street": "Colerne Recreation Ground, Off Cleaves Avenue",
    "city":"Chippenham",
    "postcode": "SN14 7HU",
    "opening": "PAD-Anytime 24x7"
  },
  {
    "street": "Stowell Concrete Ltd, Edford Green, Holcomb",
    "city":"Chippenham",
    "postcode": "BA3 5DA",
    "opening": "Monday to Friday 7.30am-5pm"
  },
  {
    "street": "Witham Village Hall, Witham Friary",
    "city":"Bath",
    "postcode": "BA11 5HF",
    "opening": "PAD-Anytime 24x7"
  },
  {
    "street": "East Harptree Village Hall (on wall by main entrance), Whitecross Road",
    "city":"Bristol",
    "postcode": "BS40 6AA",
    "opening": "PAD-Anytime 24x7"
  },
  {
    "street": "8 Meadway, Temple Cloud, Cameley Church of England VC Primary School",
    "city":"Bristol",
    "postcode": "BS39 5BD",
    "opening": "PAD-Anytime 24x7"
  },
  {
    "street": "Litton Village Hall, Litton Lane, Litton, Radstock",
    "city":"Bristol",
    "postcode": "BA3 4PW",
    "opening": "PAD-Anytime 24x7"
  },
  {
    "street": "The Old Telephone Kiosk, Next to 43 Hillcrest",
    "city":"Bristol",
    "postcode": "BS39 4AT",
    "opening": "PAD-Anytime 24x7"
  },
  {
    "street": "18 Bilbie Road, Chew Stoke",
    "city":"Bristol",
    "postcode": "BS40 8XW",
    "opening": "PAD-Anytime 24x7"
  },
  {
    "street": "Stowell Concrete Ltd, Edford Green, Holcombe",
    "city":"Somerset",
    "postcode": "BA3 5DA",
    "opening": "Monday to Friday 7.30am-5pm"
  },
  {
    "street": "Wells Golf Club, Blackheath Lane",
    "city":"Somerset",
    "postcode": "BA5 3DS",
    "opening": "PAD-Anytime 24x7"
  },
  {
    "street": "Wheatsheaf Inn, Notting Hill Way",
    "city":"Axbridge",
    "postcode": "BS26 2NH",
    "opening": "PAD-Anytime 24x7"
  },
  {
    "street": "The Sexey's Arms Inn, Sexey's Road",
    "city":"Wedmore",
    "postcode": "BS28 4NT",
    "opening": "PAD-Anytime 24x7"
  },
  {
    "street": "Kingston Seymour Village Hall, Ham Lane",
    "city":"Bristol",
    "postcode": "BS21 6XE",
    "opening": "PAD-Anytime 24x7"
  },
  {
    "street": "Sand Bay Leisure Resort (AED held in Reception), Beach Road",
    "city":"Weston-super-Mare",
    "postcode": "BS22 9UR",
    "opening": "PAD-Anytime 24x7"
  },
  {
    "street": "Willmott Dixon Construction Ltd - Site Office, Woodland Road",
    "city":"Oxford",
    "postcode": "OX3 7RH",
    "opening": "7am - 6pm Mon - Fri"
  },
  {
    "street": "1 West Way, Botley Road",
    "city":"Oxford",
    "postcode": "OX2 0JB",
    "opening": "12pm-6pm 7 days a week"
  },
  {
    "street": "Damira Bury Knowle, Dental Practice",
    "city":"Oxford",
    "postcode": "OX3 9JA",
    "opening": "Monday to Friday 8am-5pm"
  },
  {
    "street": "269-275 Iffley Road (Site entrance on Percy Street)",
    "city":"Oxford",
    "postcode": "OX4 4AA",
    "opening": "Mon-Fri 07.30-17.30. Sat 08.00-12.30. Closed Sundays and Bank Holidays"
  },
  {
    "street": "Damira Bury Knowle, Dental Practice",
    "city":"Oxford",
    "postcode": "OX3 9JA",
    "opening": "Monday to Friday 8am-5pm"
  },
  {
    "street": "Unit 16, Wornal Park, Worminghall",
    "city":"Oxford",
    "postcode": "HP18 9JX",
    "": "Monday to Friday 8am-5pm"
  }
]
}
